QIANFAN-57              
1 62787U 25016C   25323.79113737  .00000088  00000+0  11794-3 0  9997
2 62787  88.9767 105.5655 0001435 128.4698 231.6582 13.50980595 44106
QIANFAN-58              
1 62788U 25016D   25323.83637716  .00000104  00000+0  14229-3 0  9996
2 62788  88.9737 105.3995 0014993  54.3842 305.8703 13.50980425 44156
QIANFAN-59              
1 62789U 25016E   25323.78700286  .00000093  00000+0  12555-3 0  9991
2 62789  88.9760 105.4728 0015455  57.8934 302.3715 13.50979805 44146
QIANFAN-60              
1 62790U 25016F   25323.82011419  .00000043  00000+0  47046-4 0  9990
2 62790  88.9742 105.4453 0016904  54.2346 306.0374 13.50976730 44136
QIANFAN-61              
1 62791U 25016G   25323.77877876  .00000086  00000+0  11414-3 0  9998
2 62791  88.9808 105.5968 0015848  53.9620 306.2997 13.50973773 44147
QIANFAN-62              
1 62792U 25016H   25323.78296417  .00000087  00000+0  11542-3 0  9999
2 62792  88.9755 105.4772 0017227  53.9218 306.3525 13.50983686 44138
QIANFAN-63              
1 62793U 25016J   25323.73359752  .00000109  00000+0  15055-3 0  9995
2 62793  88.9762 105.4323 0017387  58.9996 301.2860 13.50976830 44166
QIANFAN-64              
1 62794U 25016K   25323.77468206  .00000093  00000+0  12450-3 0  9993
2 62794  88.9748 105.4052 0015196  52.9140 307.3398 13.50978668 44165
