<?xml version="1.0" encoding="UTF-8"?>
<ndm xmlns:xsi="http://www.w3.org/2001/XMLSchema-instance" xsi:noNamespaceSchemaLocation="https://sanaregistry.org/r/ndmxml_unqualified/ndmxml-2.0.0-master-2.0.xsd">
<omm id="CCSDS_OMM_VERS" version="2.0">
<header><CREATION_DATE/><ORIGINATOR/></header><body><segment><metadata><OBJECT_NAME>QIANFAN-57</OBJECT_NAME><OBJECT_ID>2025-016C</OBJECT_ID><CENTER_NAME>EARTH</CENTER_NAME><REF_FRAME>TEME</REF_FRAME><TIME_SYSTEM>UTC</TIME_SYSTEM><MEAN_ELEMENT_THEORY>SGP4</MEAN_ELEMENT_THEORY></metadata><data><meanElements><EPOCH>2025-11-19T18:59:14.268768</EPOCH><MEAN_MOTION>13.50980595</MEAN_MOTION><ECCENTRICITY>.0001435</ECCENTRICITY><INCLINATION>88.9767</INCLINATION><RA_OF_ASC_NODE>105.5655</RA_OF_ASC_NODE><ARG_OF_PERICENTER>128.4698</ARG_OF_PERICENTER><MEAN_ANOMALY>231.6582</MEAN_ANOMALY></meanElements><tleParameters><EPHEMERIS_TYPE>0</EPHEMERIS_TYPE><CLASSIFICATION_TYPE>U</CLASSIFICATION_TYPE><NORAD_CAT_ID>62787</NORAD_CAT_ID><ELEMENT_SET_NO>999</ELEMENT_SET_NO><REV_AT_EPOCH>4410</REV_AT_EPOCH><BSTAR>.11794E-3</BSTAR><MEAN_MOTION_DOT>.88E-6</MEAN_MOTION_DOT><MEAN_MOTION_DDOT>0</MEAN_MOTION_DDOT></tleParameters></data></segment></body></omm>
<omm id="CCSDS_OMM_VERS" version="2.0">
<header><CREATION_DATE/><ORIGINATOR/></header><body><segment><metadata><OBJECT_NAME>QIANFAN-58</OBJECT_NAME><OBJECT_ID>2025-016D</OBJECT_ID><CENTER_NAME>EARTH</CENTER_NAME><REF_FRAME>TEME</REF_FRAME><TIME_SYSTEM>UTC</TIME_SYSTEM><MEAN_ELEMENT_THEORY>SGP4</MEAN_ELEMENT_THEORY></metadata><data><meanElements><EPOCH>2025-11-19T20:04:22.986624</EPOCH><MEAN_MOTION>13.50980425</MEAN_MOTION><ECCENTRICITY>.0014993</ECCENTRICITY><INCLINATION>88.9737</INCLINATION><RA_OF_ASC_NODE>105.3995</RA_OF_ASC_NODE><ARG_OF_PERICENTER>54.3842</ARG_OF_PERICENTER><MEAN_ANOMALY>305.8703</MEAN_ANOMALY></meanElements><tleParameters><EPHEMERIS_TYPE>0</EPHEMERIS_TYPE><CLASSIFICATION_TYPE>U</CLASSIFICATION_TYPE><NORAD_CAT_ID>62788</NORAD_CAT_ID><ELEMENT_SET_NO>999</ELEMENT_SET_NO><REV_AT_EPOCH>4415</REV_AT_EPOCH><BSTAR>.14229E-3</BSTAR><MEAN_MOTION_DOT>.104E-5</MEAN_MOTION_DOT><MEAN_MOTION_DDOT>0</MEAN_MOTION_DDOT></tleParameters></data></segment></body></omm>
<omm id="CCSDS_OMM_VERS" version="2.0">
<header><CREATION_DATE/><ORIGINATOR/></header><body><segment><metadata><OBJECT_NAME>QIANFAN-59</OBJECT_NAME><OBJECT_ID>2025-016E</OBJECT_ID><CENTER_NAME>EARTH</CENTER_NAME><REF_FRAME>TEME</REF_FRAME><TIME_SYSTEM>UTC</TIME_SYSTEM><MEAN_ELEMENT_THEORY>SGP4</MEAN_ELEMENT_THEORY></metadata><data><meanElements><EPOCH>2025-11-19T18:53:17.047104</EPOCH><MEAN_MOTION>13.50979805</MEAN_MOTION><ECCENTRICITY>.0015455</ECCENTRICITY><INCLINATION>88.9760</INCLINATION><RA_OF_ASC_NODE>105.4728</RA_OF_ASC_NODE><ARG_OF_PERICENTER>57.8934</ARG_OF_PERICENTER><MEAN_ANOMALY>302.3715</MEAN_ANOMALY></meanElements><tleParameters><EPHEMERIS_TYPE>0</EPHEMERIS_TYPE><CLASSIFICATION_TYPE>U</CLASSIFICATION_TYPE><NORAD_CAT_ID>62789</NORAD_CAT_ID><ELEMENT_SET_NO>999</ELEMENT_SET_NO><REV_AT_EPOCH>4414</REV_AT_EPOCH><BSTAR>.12555E-3</BSTAR><MEAN_MOTION_DOT>.93E-6</MEAN_MOTION_DOT><MEAN_MOTION_DDOT>0</MEAN_MOTION_DDOT></tleParameters></data></segment></body></omm>
<omm id="CCSDS_OMM_VERS" version="2.0">
<header><CREATION_DATE/><ORIGINATOR/></header><body><segment><metadata><OBJECT_NAME>QIANFAN-60</OBJECT_NAME><OBJECT_ID>2025-016F</OBJECT_ID><CENTER_NAME>EARTH</CENTER_NAME><REF_FRAME>TEME</REF_FRAME><TIME_SYSTEM>UTC</TIME_SYSTEM><MEAN_ELEMENT_THEORY>SGP4</MEAN_ELEMENT_THEORY></metadata><data><meanElements><EPOCH>2025-11-19T19:40:57.866016</EPOCH><MEAN_MOTION>13.50976730</MEAN_MOTION><ECCENTRICITY>.0016904</ECCENTRICITY><INCLINATION>88.9742</INCLINATION><RA_OF_ASC_NODE>105.4453</RA_OF_ASC_NODE><ARG_OF_PERICENTER>54.2346</ARG_OF_PERICENTER><MEAN_ANOMALY>306.0374</MEAN_ANOMALY></meanElements><tleParameters><EPHEMERIS_TYPE>0</EPHEMERIS_TYPE><CLASSIFICATION_TYPE>U</CLASSIFICATION_TYPE><NORAD_CAT_ID>62790</NORAD_CAT_ID><ELEMENT_SET_NO>999</ELEMENT_SET_NO><REV_AT_EPOCH>4413</REV_AT_EPOCH><BSTAR>.47046E-4</BSTAR><MEAN_MOTION_DOT>.43E-6</MEAN_MOTION_DOT><MEAN_MOTION_DDOT>0</MEAN_MOTION_DDOT></tleParameters></data></segment></body></omm>
<omm id="CCSDS_OMM_VERS" version="2.0">
<header><CREATION_DATE/><ORIGINATOR/></header><body><segment><metadata><OBJECT_NAME>QIANFAN-61</OBJECT_NAME><OBJECT_ID>2025-016G</OBJECT_ID><CENTER_NAME>EARTH</CENTER_NAME><REF_FRAME>TEME</REF_FRAME><TIME_SYSTEM>UTC</TIME_SYSTEM><MEAN_ELEMENT_THEORY>SGP4</MEAN_ELEMENT_THEORY></metadata><data><meanElements><EPOCH>2025-11-19T18:41:26.484864</EPOCH><MEAN_MOTION>13.50973773</MEAN_MOTION><ECCENTRICITY>.0015848</ECCENTRICITY><INCLINATION>88.9808</INCLINATION><RA_OF_ASC_NODE>105.5968</RA_OF_ASC_NODE><ARG_OF_PERICENTER>53.9620</ARG_OF_PERICENTER><MEAN_ANOMALY>306.2997</MEAN_ANOMALY></meanElements><tleParameters><EPHEMERIS_TYPE>0</EPHEMERIS_TYPE><CLASSIFICATION_TYPE>U</CLASSIFICATION_TYPE><NORAD_CAT_ID>62791</NORAD_CAT_ID><ELEMENT_SET_NO>999</ELEMENT_SET_NO><REV_AT_EPOCH>4414</REV_AT_EPOCH><BSTAR>.11414E-3</BSTAR><MEAN_MOTION_DOT>.86E-6</MEAN_MOTION_DOT><MEAN_MOTION_DDOT>0</MEAN_MOTION_DDOT></tleParameters></data></segment></body></omm>
<omm id="CCSDS_OMM_VERS" version="2.0">
<header><CREATION_DATE/><ORIGINATOR/></header><body><segment><metadata><OBJECT_NAME>QIANFAN-62</OBJECT_NAME><OBJECT_ID>2025-016H</OBJECT_ID><CENTER_NAME>EARTH</CENTER_NAME><REF_FRAME>TEME</REF_FRAME><TIME_SYSTEM>UTC</TIME_SYSTEM><MEAN_ELEMENT_THEORY>SGP4</MEAN_ELEMENT_THEORY></metadata><data><meanElements><EPOCH>2025-11-19T18:47:28.104288</EPOCH><MEAN_MOTION>13.50983686</MEAN_MOTION><ECCENTRICITY>.0017227</ECCENTRICITY><INCLINATION>88.9755</INCLINATION><RA_OF_ASC_NODE>105.4772</RA_OF_ASC_NODE><ARG_OF_PERICENTER>53.9218</ARG_OF_PERICENTER><MEAN_ANOMALY>306.3525</MEAN_ANOMALY></meanElements><tleParameters><EPHEMERIS_TYPE>0</EPHEMERIS_TYPE><CLASSIFICATION_TYPE>U</CLASSIFICATION_TYPE><NORAD_CAT_ID>62792</NORAD_CAT_ID><ELEMENT_SET_NO>999</ELEMENT_SET_NO><REV_AT_EPOCH>4413</REV_AT_EPOCH><BSTAR>.11542E-3</BSTAR><MEAN_MOTION_DOT>.87E-6</MEAN_MOTION_DOT><MEAN_MOTION_DDOT>0</MEAN_MOTION_DDOT></tleParameters></data></segment></body></omm>
<omm id="CCSDS_OMM_VERS" version="2.0">
<header><CREATION_DATE/><ORIGINATOR/></header><body><segment><metadata><OBJECT_NAME>QIANFAN-63</OBJECT_NAME><OBJECT_ID>2025-016J</OBJECT_ID><CENTER_NAME>EARTH</CENTER_NAME><REF_FRAME>TEME</REF_FRAME><TIME_SYSTEM>UTC</TIME_SYSTEM><MEAN_ELEMENT_THEORY>SGP4</MEAN_ELEMENT_THEORY></metadata><data><meanElements><EPOCH>2025-11-19T17:36:22.825728</EPOCH><MEAN_MOTION>13.50976830</MEAN_MOTION><ECCENTRICITY>.0017387</ECCENTRICITY><INCLINATION>88.9762</INCLINATION><RA_OF_ASC_NODE>105.4323</RA_OF_ASC_NODE><ARG_OF_PERICENTER>58.9996</ARG_OF_PERICENTER><MEAN_ANOMALY>301.2860</MEAN_ANOMALY></meanElements><tleParameters><EPHEMERIS_TYPE>0</EPHEMERIS_TYPE><CLASSIFICATION_TYPE>U</CLASSIFICATION_TYPE><NORAD_CAT_ID>62793</NORAD_CAT_ID><ELEMENT_SET_NO>999</ELEMENT_SET_NO><REV_AT_EPOCH>4416</REV_AT_EPOCH><BSTAR>.15055E-3</BSTAR><MEAN_MOTION_DOT>.109E-5</MEAN_MOTION_DOT><MEAN_MOTION_DDOT>0</MEAN_MOTION_DDOT></tleParameters></data></segment></body></omm>
<omm id="CCSDS_OMM_VERS" version="2.0">
<header><CREATION_DATE/><ORIGINATOR/></header><body><segment><metadata><OBJECT_NAME>QIANFAN-64</OBJECT_NAME><OBJECT_ID>2025-016K</OBJECT_ID><CENTER_NAME>EARTH</CENTER_NAME><REF_FRAME>TEME</REF_FRAME><TIME_SYSTEM>UTC</TIME_SYSTEM><MEAN_ELEMENT_THEORY>SGP4</MEAN_ELEMENT_THEORY></metadata><data><meanElements><EPOCH>2025-11-19T18:35:32.529984</EPOCH><MEAN_MOTION>13.50978668</MEAN_MOTION><ECCENTRICITY>.0015196</ECCENTRICITY><INCLINATION>88.9748</INCLINATION><RA_OF_ASC_NODE>105.4052</RA_OF_ASC_NODE><ARG_OF_PERICENTER>52.9140</ARG_OF_PERICENTER><MEAN_ANOMALY>307.3398</MEAN_ANOMALY></meanElements><tleParameters><EPHEMERIS_TYPE>0</EPHEMERIS_TYPE><CLASSIFICATION_TYPE>U</CLASSIFICATION_TYPE><NORAD_CAT_ID>62794</NORAD_CAT_ID><ELEMENT_SET_NO>999</ELEMENT_SET_NO><REV_AT_EPOCH>4416</REV_AT_EPOCH><BSTAR>.1245E-3</BSTAR><MEAN_MOTION_DOT>.93E-6</MEAN_MOTION_DOT><MEAN_MOTION_DDOT>0</MEAN_MOTION_DDOT></tleParameters></data></segment></body></omm>

</ndm>
